{"spkid": "54143423", "covariance": {"elements": [{"name": "e", "sigma": 5.49810997765833e-07, "title": "eccentricity", "value": ".3339819562712696", "units": null, "label": "e"}, {"label": "q", "units": "au", "title": "perihelion distance", "value": ".7142059221930568", "name": "q", "sigma": 5.89969319191738e-07}, {"units": "TDB", "title": "time of perihelion passage", "value": "2458615.998341080779", "name": "tp", "sigma": 2.68341023763762e-05, "label": "tp"}, {"units": "deg", "value": "66.75895326590496", "title": "longitude of the ascending node", "sigma": 3.04993698186785e-05, "name": "om", "label": "node"}, {"units": "deg", "title": "argument of perihelion", "value": "274.2807937958677", "sigma": 4.39438346291317e-05, "name": "w", "label": "peri"}, {"label": "i", "units": "deg", "value": "27.98283671962258", "title": "inclination", "sigma": 4.65080295752488e-05, "name": "i"}], "data": [["3.022921332642606E-13", "-3.243711724329885E-13", "-1.288939523076653E-11", "2.980227174052669E-12", "1.964878863745058E-11", "6.286239662294503E-12"], ["-3.243711724329885E-13", "3.480637975875629E-13", "1.382773947646473E-11", "-3.18976450047252E-12", "-2.109396002861185E-11", "-6.766784427518731E-12"], ["-1.288939523076653E-11", "1.382773947646473E-11", "7.20069050345837E-10", "4.160226777863188E-11", "-8.76327507173183E-10", "-2.975784569843824E-10"], ["2.980227174052669E-12", "-3.18976450047252E-12", "4.160226777863188E-11", "9.302115593365162E-10", "-5.28602162503435E-10", "-1.123445050854466E-9"], ["1.964878863745058E-11", "-2.109396002861185E-11", "-8.76327507173183E-10", "-5.28602162503435E-10", "1.931060601912473E-9", "1.478973579295372E-9"], ["6.286239662294503E-12", "-6.766784427518731E-12", "-2.975784569843824E-10", "-1.123445050854466E-9", "1.478973579295372E-9", "2.162996814972218E-9"]], "labels": ["e", "q", "tp", "node", "peri", "i"], "epoch": "2458641.5"}, "elements": [{"label": "e", "title": "eccentricity", "value": ".3338970876778659", "units": null, "name": "e", "sigma": "5.5017E-7"}, {"label": "a", "name": "a", "sigma": "2.1622E-9", "value": "1.072780923372741", "title": "semi-major axis", "units": "au"}, {"sigma": "5.9094E-7", "name": "q", "value": ".7145824973422112", "title": "perihelion distance", "units": "au", "label": "q"}, {"label": "i", "sigma": "4.6473E-5", "name": "i", "value": "27.98631292389925", "title": "inclination; angle with respect to x-y ecliptic plane", "units": "deg"}, {"value": "66.73023167754256", "title": "longitude of the ascending node", "units": "deg", "name": "om", "sigma": "3.0471E-5", "label": "node"}, {"label": "peri", "name": "w", "sigma": "4.4304E-5", "value": "274.2364486987689", "title": "argument of perihelion", "units": "deg"}, {"units": "deg", "title": "mean anomaly", "value": "133.0638679613572", "sigma": "2.8413E-5", "name": "ma", "label": "M"}, {"label": "tp", "sigma": "3.1784E-5", "name": "tp", "value": "2461050.489163489413", "title": "time of perihelion passage", "units": "TDB"}, {"name": "per", "sigma": "1.227E-6", "units": "d", "title": "sidereal orbital period", "value": "405.8494764295778", "label": "period"}, {"units": "deg/d", "title": "mean motion", "value": ".8870283711268173", "sigma": "2.6817E-9", "name": "n", "label": "n"}, {"label": "Q", "units": "au", "value": "1.430979349403271", "title": "aphelion distance", "name": "ad", "sigma": "2.8842E-9"}], "epoch": "2461200.5"}